,Name,description,Strasse,PLZ,Ort,Beschreibung,Typ,Kategorie,Teilort,lat,lon
0,Erlebnismuseum Fördertechnik gGmbH,Straße: Untere Au 4<br>PLZ: 74889<br>Ort: Sinsheim<br>Beschreibung: fischertechnik-AG,Untere Au 4,74889,Sinsheim,fischertechnik-AG,extra,,,49.24005795,8.895728102130784
1,Jugendtreff Haueneberstein,Straße: Großer Maien 4<br>PLZ: 76532<br>Ort: Baden-Baden<br>Beschreibung: fischertechnik-AG,Großer Maien 4,76532,Baden-Baden,fischertechnik-AG,extra,,,48.805676,8.2188161
2,Käpsele AG,Straße: Lorenzstr. 19<br>PLZ: 76137<br>Ort: Karlsruhe<br>Beschreibung: fischertechnik-AG,Lorenzstr. 19,76137,Karlsruhe,fischertechnik-AG,extra,,,49.001285249999995,8.383600522681519
3,Stadtbücherei Östringen,Straße: Mozartstraße 1d<br>PLZ: 76684<br>Ort: Östringen<br>Beschreibung: fischertechnik-AG,Mozartstraße 1d,76684,Östringen,fischertechnik-AG,extra,,,49.2166979,8.7075723
4,TechnoTHEK,Straße: Karlstraße 10<br>PLZ: 76133<br>Ort: Karlsruhe<br>Beschreibung: fischertechnik-AG,Karlstraße 10,76133,Karlsruhe,fischertechnik-AG,extra,,,49.01118565,8.39473627232248
5,Karlsruher Technik-Initiative,Straße: Haid-und-Neu-Straße 18<br>PLZ: 76131<br>Ort: Karlsruhe<br>Beschreibung: CyberForum e.V.,Haid-und-Neu-Straße 18,76131,Karlsruhe,CyberForum e.V.,extra,,,49.0124946,8.4271216
6,Bismarck-Gymnasium Karlsruhe,Straße: Bismarckstr. 8<br>PLZ: 76133<br>Ort: Karlsruhe<br>Beschreibung: GIRLS‘ DIGITAL CAMPS<br>Kategorie: GDC,Bismarckstr. 8,76133,Karlsruhe,GIRLS‘ DIGITAL CAMPS,girlscamps,GDC,,49.01353795,8.394843389159076
7,Drais-Gemeinschaftsschule,Straße: Tristanstr. 1<br>PLZ: 76185<br>Ort: Karlsruhe<br>Beschreibung: GIRLS‘ DIGITAL CAMPS<br>Kategorie: GDC,Tristanstr. 1,76185,Karlsruhe,GIRLS‘ DIGITAL CAMPS,girlscamps,GDC,,49.0151098,8.3673452
8,Ernst-Reuter-Schule,Straße: Tilsiter Str. 15<br>PLZ: 76139<br>Ort: Karlsruhe<br>Beschreibung: GIRLS‘ DIGITAL CAMPS<br>Kategorie: GDC,Tilsiter Str. 15,76139,Karlsruhe,GIRLS‘ DIGITAL CAMPS,girlscamps,GDC,,49.03153615,8.437041532521864
9,Fichte-Gymnasium Karlsruhe,Straße: Sophienstr. 12 - 16<br>PLZ: 76133<br>Ort: Karlsruhe<br>Beschreibung: GIRLS‘ DIGITAL CAMPS<br>Kategorie: GDC,Sophienstr. 12 - 16,76133,Karlsruhe,GIRLS‘ DIGITAL CAMPS,girlscamps,GDC,,49.0068134,8.393247338283377
10,Goethe Gymnasium Karlsruhe,Straße: Renckstr. 2<br>PLZ: 76133<br>Ort: Karlsruhe<br>Beschreibung: GIRLS‘ DIGITAL CAMPS<br>Kategorie: GDC,Renckstr. 2,76133,Karlsruhe,GIRLS‘ DIGITAL CAMPS,girlscamps,GDC,,49.00386015,8.39596794461073
11,Gymnasium Neureut,Straße: Unterfeldstr. 6<br>PLZ: 76149<br>Ort: Karlsruhe<br>Beschreibung: GIRLS‘ DIGITAL CAMPS<br>Kategorie: GDC,Unterfeldstr. 6,76149,Karlsruhe,GIRLS‘ DIGITAL CAMPS,girlscamps,GDC,,49.04514525,8.378219359001722
12,Humboldt-Gymnasium Karlsruhe,Straße: Wilhelm-Hausenstein-Allee 22<br>PLZ: 76187<br>Ort: Karlsruhe<br>Beschreibung: GIRLS‘ DIGITAL CAMPS<br>Kategorie: GDC,Wilhelm-Hausenstein-Allee 22,76187,Karlsruhe,GIRLS‘ DIGITAL CAMPS,girlscamps,GDC,,49.033622699999995,8.371673020052897
13,Kant-Gymnasium Karlsruhe,Straße: Englerstr. 10<br>PLZ: 76131<br>Ort: Karlsruhe<br>Beschreibung: GIRLS‘ DIGITAL CAMPS<br>Kategorie: GDC,Englerstr. 10,76131,Karlsruhe,GIRLS‘ DIGITAL CAMPS,girlscamps,GDC,,49.01074455,8.410390287930692
14,Lessing-Gymnasium Karlsruhe,Straße: Sophienstr. 147<br>PLZ: 76135<br>Ort: Karlsruhe<br>Beschreibung: GIRLS‘ DIGITAL CAMPS<br>Kategorie: GDC,Sophienstr. 147,76135,Karlsruhe,GIRLS‘ DIGITAL CAMPS,girlscamps,GDC,,49.00781670000001,8.375177019525552
15,Markgrafen-Gymnasium Karlsruhe,Straße: Gymnasiumstraße 1-3<br>PLZ: 76227<br>Ort: Karlsruhe<br>Beschreibung: GIRLS‘ DIGITAL CAMPS<br>Kategorie: GDC,Gymnasiumstraße 1-3,76227,Karlsruhe,GIRLS‘ DIGITAL CAMPS,girlscamps,GDC,,48.998866750000005,8.477738013254744
16,Realschule am Rennbuckel,Straße: Bonner Str. 22<br>PLZ: 76185<br>Ort: Karlsruhe<br>Beschreibung: GIRLS‘ DIGITAL CAMPS<br>Kategorie: GDC,Bonner Str. 22,76185,Karlsruhe,GIRLS‘ DIGITAL CAMPS,girlscamps,GDC,,49.0248733,8.3613744
17,Sophie-Scholl-Realschule,Straße: Joachim-Kurzaj-Weg 4<br>PLZ: 76189<br>Ort: Karlsruhe<br>Beschreibung: GIRLS‘ DIGITAL CAMPS<br>Kategorie: GDC,Joachim-Kurzaj-Weg 4,76189,Karlsruhe,GIRLS‘ DIGITAL CAMPS,girlscamps,GDC,,48.991696000000005,8.36122625639948
18,St. Dominikus Gymnasium,Straße: Seminarstr. 5<br>PLZ: 76133<br>Ort: Karlsruhe<br>Beschreibung: GIRLS‘ DIGITAL CAMPS<br>Kategorie: GDC,Seminarstr. 5,76133,Karlsruhe,GIRLS‘ DIGITAL CAMPS,girlscamps,GDC,,49.013934250000005,8.394341434640484
19,Adolf-Kußmaul-Grundschule,PLZ: 76676<br>Ort: Graben-Neudorf<br>Straße: Friedrichstaler Str. 25<br>Teilort: <br>Beschreibung: fischertechnik-AG<br>Kategorie: Grundschule,Friedrichstaler Str. 25,76676,Graben-Neudorf,fischertechnik-AG,grund,Grundschule,,49.152313050000004,8.485690392893568
20,Bergwaldschule Karlsruhe-Durlach,PLZ: 76228<br>Ort: Karlsruhe<br>Straße: Elsa-Brändström-Str. 7<br>Teilort: <br>Beschreibung: fischertechnik-AG<br>Kategorie: Grundschule,Elsa-Brändström-Str. 7,76228,Karlsruhe,fischertechnik-AG,grund,Grundschule,,48.9705777,8.468996201968203
21,Burgschule Obergrombach,PLZ: 76646<br>Ort: Bruchsal<br>Straße: Danzberg 9<br>Teilort: <br>Beschreibung: fischertechnik-AG<br>Kategorie: Grundschule,Danzberg 9,76646,Bruchsal,fischertechnik-AG,grund,Grundschule,,49.0784528,8.58654414710752
22,Dietrich- Bonhoeffer- Schule,PLZ: 76646<br>Ort: Bruchsal<br>Straße: Merianstr. 2<br>Teilort: Heidelsheim<br>Beschreibung: fischertechnik-AG<br>Kategorie: Grundschule,Merianstr. 2,76646,Bruchsal,fischertechnik-AG,grund,Grundschule,Heidelsheim,49.1009988,8.644114633836022
23,Draisschule GHS,PLZ: 76185<br>Ort: Karlsruhe<br>Straße: Tristanstr. 1<br>Teilort: <br>Beschreibung: fischertechnik-AG<br>Kategorie: Grundschule,Tristanstr. 1,76185,Karlsruhe,fischertechnik-AG,grund,Grundschule,,49.0151098,8.3673452
24,Eichendorffschule (GWRS),PLZ: 76139<br>Ort: Karlsruhe<br>Straße: Lötzener Str. 2<br>Teilort: <br>Beschreibung: fischertechnik-AG<br>Kategorie: Grundschule,Lötzener Str. 2,76139,Karlsruhe,fischertechnik-AG,grund,Grundschule,,49.037113899999994,8.44623177955125
25,Element-i-Schule im Technido,PLZ: 76131<br>Ort: Karlsruhe<br>Straße: Albert-Nestler-Straße 13<br>Teilort: <br>Beschreibung: fischertechnik-AG<br>Kategorie: Grundschule,Albert-Nestler-Straße 13,76131,Karlsruhe,fischertechnik-AG,grund,Grundschule,,49.0208302,8.4406636
26,Erich-Kästner-Grundschule Graben-Neudorf,PLZ: 76676<br>Ort: Graben-Neudorf<br>Straße: Hofstr. 16<br>Teilort: Neudorf<br>Beschreibung: fischertechnik-AG<br>Kategorie: Grundschule,Hofstr. 16,76676,Graben-Neudorf,fischertechnik-AG,grund,Grundschule,Neudorf,49.17384545,8.498901914010805
27,Evangelische Jakobusschule Karlsruhe,PLZ: 76187<br>Ort: Karlsruhe<br>Straße: Sengestraße 7<br>Teilort: <br>Beschreibung: fischertechnik-AG<br>Kategorie: Grundschule,Sengestraße 7,76187,Karlsruhe,fischertechnik-AG,grund,Grundschule,,49.033394900000005,8.374160002577964
28,Friedrich-Ebert-Schule,PLZ: 76185<br>Ort: Karlsruhe<br>Straße: Staudinger Str. 3<br>Teilort: <br>Beschreibung: fischertechnik-AG<br>Kategorie: Grundschule,Staudinger Str. 3,76185,Karlsruhe,fischertechnik-AG,grund,Grundschule,,49.0085568,8.3635599
29,Gartenschule Karlsruhe,PLZ: 76133<br>Ort: Karlsruhe<br>Straße: Gartenstraße 20-22<br>Teilort: <br>Beschreibung: fischertechnik-AG<br>Kategorie: Grundschule,Gartenstraße 20-22,76133,Karlsruhe,fischertechnik-AG,grund,Grundschule,,49.00454265,8.395153321353131
30,Geschwister-Scholl-Schule,PLZ: 77723<br>Ort: Gengenbach<br>Straße: Nollenstraße 15<br>Teilort: <br>Beschreibung: fischertechnik-AG<br>Kategorie: Grundschule,Nollenstraße 15,77723,Gengenbach,fischertechnik-AG,grund,Grundschule,,48.4071198,8.0143039
31,Grundschule am Wasserturm,PLZ: 76137<br>Ort: Karlsruhe<br>Straße: Hedwig-Kettler-Str. 11<br>Teilort: Oststadt<br>Beschreibung: fischertechnik-AG<br>Kategorie: Grundschule,Hedwig-Kettler-Str. 11,76137,Karlsruhe,fischertechnik-AG,grund,Grundschule,Oststadt,49.002986899999996,8.417760046114093
32,Grundschule Bellheim,PLZ: 76756<br>Ort: Bellheim<br>Straße: Schulstr. 2<br>Teilort: <br>Beschreibung: fischertechnik-AG<br>Kategorie: Grundschule,Schulstr. 2,76756,Bellheim,fischertechnik-AG,grund,Grundschule,,49.1937568,8.2841301
33,Grundschule Bulach,PLZ: 76135<br>Ort: Karlsruhe<br>Straße: Grünwinkler Str. 10<br>Teilort: <br>Beschreibung: fischertechnik-AG<br>Kategorie: Grundschule,Grünwinkler Str. 10,76135,Karlsruhe,fischertechnik-AG,grund,Grundschule,,48.9885176,8.3787506
34,Grundschule Daxlanden,PLZ: 76189<br>Ort: Karlsruhe<br>Straße: Pfalzstr. 8<br>Teilort: Daxlanden<br>Beschreibung: fischertechnik-AG<br>Kategorie: Grundschule,Pfalzstr. 8,76189,Karlsruhe,fischertechnik-AG,grund,Grundschule,Daxlanden,49.00481895,8.333159288664833
35,Grundschule Grünwinkel ,PLZ:  76185 <br>Ort: Karlsruhe<br>Straße: Hopfenstr. 18<br>Teilort: <br>Beschreibung: fischertechnik-AG<br>Kategorie: Grundschule,Hopfenstr. 18, 76185 ,Karlsruhe,fischertechnik-AG,grund,Grundschule,,48.9992453,8.353400444522737
36,Grundschule Hagsfeld,PLZ: 76139<br>Ort: Karlsruhe<br>Straße: Ruschgraben 17<br>Teilort: <br>Beschreibung: fischertechnik-AG<br>Kategorie: Grundschule,Ruschgraben 17,76139,Karlsruhe,fischertechnik-AG,grund,Grundschule,,49.029428,8.458609
37,Grundschule Huchenfeld,PLZ: 75181<br>Ort: Pforzheim<br>Straße: Ulrichstraße 32<br>Teilort: <br>Beschreibung: fischertechnik-AG<br>Kategorie: Grundschule,Ulrichstraße 32,75181,Pforzheim,fischertechnik-AG,grund,Grundschule,,48.85863145,8.6964076
38,Grundschule Lambrecht,PLZ: 67466<br>Ort: Lambrecht<br>Straße: Schulstraße 7<br>Teilort: <br>Beschreibung: fischertechnik-AG<br>Kategorie: Grundschule,Schulstraße 7,67466,Lambrecht,fischertechnik-AG,grund,Grundschule,,49.37206495,8.070856266505213
39,Grundschule Wolfartsweier,PLZ: 76228<br>Ort: Karlsruhe<br>Straße: Steinkreuzstr. 56<br>Teilort: <br>Beschreibung: fischertechnik-AG<br>Kategorie: Grundschule,Steinkreuzstr. 56,76228,Karlsruhe,fischertechnik-AG,grund,Grundschule,,48.97330185,8.451707152042566
40,GWRS LINKENHEIM,PLZ: 76351<br>Ort: Linkenheim-Hochstetten<br>Straße: Heussstraße 1<br>Teilort: Linkenheim<br>Beschreibung: fischertechnik-AG<br>Kategorie: Grundschule,Heussstraße 1,76351,Linkenheim-Hochstetten,fischertechnik-AG,grund,Grundschule,Linkenheim,49.12679675,8.414580524164604
41,Hans-Thoma-Schule Karlsruhe,PLZ: 76133<br>Ort: Karlsruhe<br>Straße: Markgrafenstraße 42<br>Teilort: <br>Beschreibung: fischertechnik-AG<br>Kategorie: Grundschule,Markgrafenstraße 42,76133,Karlsruhe,fischertechnik-AG,grund,Grundschule,,49.0076212,8.406062206266407
42,Hebel-Grundschule,PLZ: 76133<br>Ort: Karlsruhe<br>Straße: Moltkestraße 8<br>Teilort: <br>Beschreibung: fischertechnik-AG<br>Kategorie: Grundschule,Moltkestraße 8,76133,Karlsruhe,fischertechnik-AG,grund,Grundschule,,49.01461345,8.396397172131607
43,Heinrich-Hansjakob-Bildungszentrum,PLZ: 77716<br>Ort: Haslach<br>Straße: Richard-Wagner-Straße 10<br>Teilort: <br>Beschreibung: fischertechnik-AG<br>Kategorie: Grundschule,Richard-Wagner-Straße 10,77716,Haslach,fischertechnik-AG,grund,Grundschule,,48.2732689,8.0809804
44,Heinrich-Köhler-Schule,PLZ: 76131<br>Ort: Karlsruhe<br>Straße: Forststraße 4<br>Teilort: <br>Beschreibung: fischertechnik-AG<br>Kategorie: Grundschule,Forststraße 4,76131,Karlsruhe,fischertechnik-AG,grund,Grundschule,,49.0138494,8.4410823170701
45,Johann-Peter-Hebel-Schule,PLZ: 76646<br>Ort: Bruchsal<br>Straße: Wilderichstraße 14<br>Teilort: <br>Beschreibung: fischertechnik-AG<br>Kategorie: Grundschule,Wilderichstraße 14,76646,Bruchsal,fischertechnik-AG,grund,Grundschule,,49.12810535,8.5959873927196
46,Joß-Fritz-Grundschule,PLZ: 76646<br>Ort: Bruchsal<br>Straße: Joß-Fritz-Straße 30<br>Teilort: <br>Beschreibung: fischertechnik-AG<br>Kategorie: Grundschule,Joß-Fritz-Straße 30,76646,Bruchsal,fischertechnik-AG,grund,Grundschule,,49.09081005,8.547437252408939
47,Konrad-Adenauer-Schule Bruchsal,PLZ: 76646<br>Ort: Bruchsal<br>Straße: Hardfeldplatz 8<br>Teilort: <br>Beschreibung: fischertechnik-AG<br>Kategorie: Grundschule,Hardfeldplatz 8,76646,Bruchsal,fischertechnik-AG,grund,Grundschule,,49.1169856,8.57211349058867
48,Lindenschule Eggenstein,PLZ: 76344<br>Ort: Eggenstein-Leopoldshafen<br>Straße: Kirchenstraße 17-19<br>Teilort: Eggenstein<br>Beschreibung: fischertechnik-AG<br>Kategorie: Grundschule,Kirchenstraße 17-19,76344,Eggenstein-Leopoldshafen,fischertechnik-AG,grund,Grundschule,Eggenstein,49.0784591,8.3859327
49,Nebenius-Grundschule,PLZ: 76137<br>Ort: Karlsruhe<br>Straße: Nebeniusstraße 22<br>Teilort: <br>Beschreibung: fischertechnik-AG<br>Kategorie: Grundschule,Nebeniusstraße 22,76137,Karlsruhe,fischertechnik-AG,grund,Grundschule,,48.997134,8.4072831
50,Nordschule Neureut,PLZ: 76149<br>Ort: Karlsruhe<br>Straße: Friedhofstr. 1<br>Teilort: <br>Beschreibung: fischertechnik-AG<br>Kategorie: Grundschule,Friedhofstr. 1,76149,Karlsruhe,fischertechnik-AG,grund,Grundschule,,49.052833500000006,8.381091427698976
51,Oberwaldschule-Aue,PLZ: 76227<br>Ort: Karlsruhe<br>Straße: Grazer Straße 25<br>Teilort: <br>Beschreibung: fischertechnik-AG<br>Kategorie: Grundschule,Grazer Straße 25,76227,Karlsruhe,fischertechnik-AG,grund,Grundschule,,48.9919707,8.4543068
52,Pestalozzi Grundschule Weinheim,PLZ: 69469<br>Ort: Weinheim<br>Straße: Schulstr 5<br>Teilort: <br>Beschreibung: fischertechnik-AG<br>Kategorie: Grundschule,Schulstr 5,69469,Weinheim,fischertechnik-AG,grund,Grundschule,,49.5496872,8.668562295833333
53,Pestalozzischule GWRS,PLZ: 76227<br>Ort: Karlsruhe<br>Straße: Christofstraße 23<br>Teilort: Durlach<br>Beschreibung: fischertechnik-AG<br>Kategorie: Grundschule,Christofstraße 23,76227,Karlsruhe,fischertechnik-AG,grund,Grundschule,Durlach,48.99970545,8.4605721
54,Rennbuckel Grundschule,PLZ: 76185<br>Ort: Karlsruhe<br>Straße: Bonner Straße 22<br>Teilort: Nordweststadt<br>Beschreibung: fischertechnik-AG<br>Kategorie: Grundschule,Bonner Straße 22,76185,Karlsruhe,fischertechnik-AG,grund,Grundschule,Nordweststadt,49.0248733,8.3613744
55,Schillerschule Karlsruhe,PLZ: 76131<br>Ort: Karlsruhe<br>Straße: Kapellenstr. 11<br>Teilort: <br>Beschreibung: fischertechnik-AG<br>Kategorie: Grundschule,Kapellenstr. 11,76131,Karlsruhe,fischertechnik-AG,grund,Grundschule,,49.007394500000004,8.415717236238933
56,Schloss-Schule Durlach,PLZ: 76227<br>Ort: Karlsruhe<br>Straße: Prinzessenstr. 1<br>Teilort: Durlach<br>Beschreibung: fischertechnik-AG<br>Kategorie: Grundschule,Prinzessenstr. 1,76227,Karlsruhe,fischertechnik-AG,grund,Grundschule,Durlach,48.9978718,8.473692774428487
57,Schönbornschule,PLZ: 76689<br>Ort: Karlsdorf-Neuthard<br>Straße: Schönbornstr. 3<br>Teilort: <br>Beschreibung: fischertechnik-AG<br>Kategorie: Grundschule,Schönbornstr. 3,76689,Karlsdorf-Neuthard,fischertechnik-AG,grund,Grundschule,,49.1392019,8.543886819570933
58,Schule im Lustgarten,PLZ: 76228<br>Ort: Karlsruhe<br>Straße: Kirchplatz 8<br>Teilort: <br>Beschreibung: fischertechnik-AG<br>Kategorie: Grundschule,Kirchplatz 8,76228,Karlsruhe,fischertechnik-AG,grund,Grundschule,,48.9655434,8.478307469860255
59,Sebastianschule Neuthard,PLZ: 76689<br>Ort: Karlsdorf-Neuthard<br>Straße: Schulstr. 32<br>Teilort: <br>Beschreibung: fischertechnik-AG<br>Kategorie: Grundschule,Schulstr. 32,76689,Karlsdorf-Neuthard,fischertechnik-AG,grund,Grundschule,,49.126996899999995,8.524302035310026
60,Stirumschule Bruchsal,PLZ: 76646<br>Ort: Bruchsal<br>Straße: Schwimmbadstraße 2a<br>Teilort: <br>Beschreibung: fischertechnik-AG<br>Kategorie: Grundschule,Schwimmbadstraße 2a,76646,Bruchsal,fischertechnik-AG,grund,Grundschule,,49.122733999999994,8.59297758846932
61,Südend-Grundschule,PLZ: 76137<br>Ort: Karlsruhe<br>Straße: Südendstr.35<br>Teilort: <br>Beschreibung: fischertechnik-AG<br>Kategorie: Grundschule,Südendstr.35,76137,Karlsruhe,fischertechnik-AG,grund,Grundschule,,48.9984851,8.38884
62,Südschule Neureut,PLZ: 76149<br>Ort: Karlsruhe<br>Straße: Welschneureuter Straße 14<br>Teilort: <br>Beschreibung: fischertechnik-AG<br>Kategorie: Grundschule,Welschneureuter Straße 14,76149,Karlsruhe,fischertechnik-AG,grund,Grundschule,,49.04568435,8.371668146148032
63,Theodor-Heuss-Schule,PLZ: 76532<br>Ort: Baden-Baden<br>Straße: Rheinstraße 42<br>Teilort: <br>Beschreibung: fischertechnik-AG<br>Kategorie: Grundschule,Rheinstraße 42,76532,Baden-Baden,fischertechnik-AG,grund,Grundschule,,48.7816281,8.2094995
64,Turmbergschule Weingarten,PLZ: 76356<br>Ort: Weingarten (Baden)<br>Straße: Schulstraße 2<br>Teilort: <br>Beschreibung: fischertechnik-AG<br>Kategorie: Grundschule,Schulstraße 2,76356,Weingarten (Baden),fischertechnik-AG,grund,Grundschule,,49.0511114,8.5296755
65,Viktor-von-Scheffel-Schule,PLZ: 76187<br>Ort: Karlsruhe<br>Straße: Schulstraße 3<br>Teilort: Knielingen<br>Beschreibung: fischertechnik-AG<br>Kategorie: Grundschule,Schulstraße 3,76187,Karlsruhe,fischertechnik-AG,grund,Grundschule,Knielingen,49.03309495,8.34117663169291
66,Waldschule Neureut,PLZ: 76149<br>Ort: Karlsruhe<br>Straße: Moldaustr. 37<br>Teilort: <br>Beschreibung: fischertechnik-AG<br>Kategorie: Grundschule,Moldaustr. 37,76149,Karlsruhe,fischertechnik-AG,grund,Grundschule,,49.0481181,8.4004587
67,Weinbrennerschule Karlsruhe,PLZ: 76135<br>Ort: Karlsruhe<br>Straße: Kriegsstr. 141<br>Teilort: <br>Beschreibung: fischertechnik-AG<br>Kategorie: Grundschule,Kriegsstr. 141,76135,Karlsruhe,fischertechnik-AG,grund,Grundschule,,49.0045174,8.3775364
68,Werner-von-Siemens-Schule,PLZ: 76187<br>Ort: Karlsruhe<br>Straße: Kurt-Schumacher-Straße 1<br>Teilort: <br>Beschreibung: fischertechnik-AG<br>Kategorie: Grundschule,Kurt-Schumacher-Straße 1,76187,Karlsruhe,fischertechnik-AG,grund,Grundschule,,49.03144615,8.371683438750942
69,Albertus-Magnus-Gymnasium Ettlingen,PLZ: 76275 <br>Ort: Ettlingen<br>Straße: Middelkerker Str. 1-5<br>Teilort: <br>Beschreibung: fischertechnik-AG,Middelkerker Str. 1-5,76275 ,Ettlingen,fischertechnik-AG,gym,,,48.9359743,8.4020497
70,Bismarck-Gymnasium Karlsruhe,PLZ: 76133<br>Ort: Karlsruhe<br>Straße: Bismarckstr. 8<br>Teilort: <br>Beschreibung: fischertechnik-AG,Bismarckstr. 8,76133,Karlsruhe,fischertechnik-AG,gym,,,49.01353795,8.394843389159076
71,Copernicus-Gymnasium,PLZ: 76661<br>Ort: Philippsburg<br>Straße: Lessingstr. 27<br>Teilort: <br>Beschreibung: fischertechnik-AG,Lessingstr. 27,76661,Philippsburg,fischertechnik-AG,gym,,,49.235095900000005,8.463288729007214
72,Fichte-Gymnasium Karlsruhe,PLZ: 76133<br>Ort: Karlsruhe<br>Straße: Sophienstr. 12 - 16<br>Teilort: <br>Beschreibung: fischertechnik-AG,Sophienstr. 12 - 16,76133,Karlsruhe,fischertechnik-AG,gym,,,49.0068134,8.393247338283377
73,Goethe Gymnasium Karlsruhe,PLZ: 76133<br>Ort: Karlsruhe<br>Straße: Renckstr. 2<br>Teilort: Südweststadt<br>Beschreibung: fischertechnik-AG,Renckstr. 2,76133,Karlsruhe,fischertechnik-AG,gym,,Südweststadt,49.00386015,8.39596794461073
74,Gymnasium Karlsbad,PLZ: 76307 <br>Ort: Karlsbad<br>Straße: Am Schelmenbusch<br>Teilort: <br>Beschreibung: fischertechnik-AG,Am Schelmenbusch,76307 ,Karlsbad,fischertechnik-AG,gym,,,48.9118119,8.4999031
75,Gymnasium Neureut,PLZ: 76149<br>Ort: Karlsruhe<br>Straße: Unterfeldstr. 6<br>Teilort: <br>Beschreibung: fischertechnik-AG,Unterfeldstr. 6,76149,Karlsruhe,fischertechnik-AG,gym,,,49.04514525,8.378219359001722
76,Gymnasium Remchingen,PLZ: 75196<br>Ort: Remchingen<br>Straße: Dajasstr. 21<br>Teilort: <br>Beschreibung: fischertechnik-AG,Dajasstr. 21,75196,Remchingen,fischertechnik-AG,gym,,,48.954618800000006,8.576099802891651
77,Heisenberg Gymnasium Ettlingen,PLZ: 76275<br>Ort: Ettlingen<br>Straße: Am Lindscharren 8-10<br>Teilort: <br>Beschreibung: fischertechnik-AG,Am Lindscharren 8-10,76275,Ettlingen,fischertechnik-AG,gym,,,48.9477551,8.4083173
78,Heisenberg Gymnasium Karlsruhe,PLZ: 76149<br>Ort: Karlsruhe<br>Straße: Tennesseeallee 111<br>Teilort: Nordstadt<br>Beschreibung: fischertechnik-AG,Tennesseeallee 111,76149,Karlsruhe,fischertechnik-AG,gym,,Nordstadt,49.02663315,8.389689353822078
79,Heisenberg-Gymnasium Bruchsal,PLZ: 76646<br>Ort: Bruchsal<br>Straße: Sportzentrum 13c<br>Teilort: <br>Beschreibung: fischertechnik-AG,Sportzentrum 13c,76646,Bruchsal,fischertechnik-AG,gym,,,49.1337986,8.582872218258506
80,Helmholtz-Gymnasium Karlsruhe,PLZ: 76133<br>Ort: Karlsruhe<br>Straße: Kaiserallee 6<br>Teilort: <br>Beschreibung: fischertechnik-AG,Kaiserallee 6,76133,Karlsruhe,fischertechnik-AG,gym,,,49.011140850000004,8.383729891747869
81,Humboldt-Gymnasium Karlsruhe,PLZ: 76187<br>Ort: Karlsruhe<br>Straße: Wilhelm-Hausenstein-Allee 22<br>Teilort: Nordweststadt<br>Beschreibung: fischertechnik-AG,Wilhelm-Hausenstein-Allee 22,76187,Karlsruhe,fischertechnik-AG,gym,,Nordweststadt,49.033622699999995,8.371673020052897
82,Kant-Gymnasium Karlsruhe,PLZ: 76131<br>Ort: Karlsruhe<br>Straße: Englerstr. 10<br>Teilort: <br>Beschreibung: fischertechnik-AG,Englerstr. 10,76131,Karlsruhe,fischertechnik-AG,gym,,,49.01074455,8.410390287930692
83,Lessing-Gymnasium Karlsruhe,PLZ: 76135<br>Ort: Karlsruhe<br>Straße: Sophienstr. 147<br>Teilort: <br>Beschreibung: fischertechnik-AG,Sophienstr. 147,76135,Karlsruhe,fischertechnik-AG,gym,,,49.00781670000001,8.375177019525552
84,Ludwig Marum Gymnasium Pfinztal,PLZ: 76327<br>Ort: Pfinztal<br>Straße: Schlossgartenstrasse 11<br>Teilort: <br>Beschreibung: fischertechnik-AG,Schlossgartenstrasse 11,76327,Pfinztal,fischertechnik-AG,gym,,,49.00291545,8.533298820824335
85,Markgrafen-Gymnasium Karlsruhe,PLZ: 76227<br>Ort: Karlsruhe<br>Straße: Gymnasiumstraße 1-3<br>Teilort: <br>Beschreibung: fischertechnik-AG,Gymnasiumstraße 1-3,76227,Karlsruhe,fischertechnik-AG,gym,,,48.998866750000005,8.477738013254744
86,Max-Planck-Gymnasium Karlsruhe,PLZ: 76199<br>Ort: Karlsruhe<br>Straße: Krokusweg 49<br>Teilort: <br>Beschreibung: fischertechnik-AG,Krokusweg 49,76199,Karlsruhe,fischertechnik-AG,gym,,,48.9761828,8.414097
87,Otto-Hahn-Gymnasium Karlsruhe,PLZ: 76139<br>Ort: Karlsruhe<br>Straße: Im Eichbäumle 1<br>Teilort: <br>Beschreibung: fischertechnik-AG,Im Eichbäumle 1,76139,Karlsruhe,fischertechnik-AG,gym,,,49.032621750000004,8.444233917287077
88,St. Dominikus Gymnasium,PLZ: 76133<br>Ort: Karlsruhe<br>Straße: Seminarstr. 5<br>Teilort: <br>Beschreibung: fischertechnik-AG,Seminarstr. 5,76133,Karlsruhe,fischertechnik-AG,gym,,,49.013934250000005,8.394341434640484
89,Albert-Schweitzer-Realschule Bruchsal,PLZ: 76646<br>Ort: Bruchsal<br>Straße: Schnabel-Henning-Str. 4<br>Teilort: <br>Beschreibung: fischertechnik-AG,Schnabel-Henning-Str. 4,76646,Bruchsal,fischertechnik-AG,real,,,49.12425005,8.58254087210117
90,Anne-Frank-Realschule Ettlingen,PLZ: 76275<br>Ort: Ettlingen<br>Straße: Middelkerkerstraße 1-5<br>Teilort: <br>Beschreibung: fischertechnik-AG,Middelkerkerstraße 1-5,76275,Ettlingen,fischertechnik-AG,real,,,48.9359743,8.4020497
91,Eichendorffschule (GWRS),PLZ: 76139<br>Ort: Karlsruhe<br>Straße: Lötzener Str. 2<br>Teilort: <br>Beschreibung: fischertechnik-AG,Lötzener Str. 2,76139,Karlsruhe,fischertechnik-AG,real,,,49.037113899999994,8.44623177955125
92,GWRS LINKENHEIM,PLZ: 76351<br>Ort: Linkenheim-Hochstetten<br>Straße: Heussstraße 1<br>Teilort: Linkenheim<br>Beschreibung: fischertechnik-AG,Heussstraße 1,76351,Linkenheim-Hochstetten,fischertechnik-AG,real,,Linkenheim,49.12679675,8.414580524164604
93,Hebel Realschule,PLZ: 76133<br>Ort: Karlsruhe<br>Straße: Moltkestr. 8<br>Teilort: <br>Beschreibung: fischertechnik-AG,Moltkestr. 8,76133,Karlsruhe,fischertechnik-AG,real,,,49.01461345,8.396397172131607
94,Heinrich-Hansjakob-Bildungszentrum,PLZ: 77716<br>Ort: Haslach<br>Straße: Richard-Wagner-Straße 10<br>Teilort: <br>Beschreibung: fischertechnik-AG,Richard-Wagner-Straße 10,77716,Haslach,fischertechnik-AG,real,,,48.2732689,8.0809804
95,Konrad-Adenauer-Realschule,PLZ: 76661<br>Ort: Philippsburg<br>Straße: Lessingstr. 33<br>Teilort: <br>Beschreibung: fischertechnik-AG,Lessingstr. 33,76661,Philippsburg,fischertechnik-AG,real,,,49.2343211,8.463527081108145
96,Nebenius Realschule,PLZ: 76137<br>Ort: Karlsruhe<br>Straße: Nebeniusstraße 22<br>Teilort: <br>Beschreibung: fischertechnik-AG,Nebeniusstraße 22,76137,Karlsruhe,fischertechnik-AG,real,,,48.997134,8.4072831
97,Pestalozzischule GWRS,PLZ: 76227<br>Ort: Karlsruhe<br>Straße: Christofstraße 23<br>Teilort: Durlach<br>Beschreibung: fischertechnik-AG,Christofstraße 23,76227,Karlsruhe,fischertechnik-AG,real,,Durlach,48.99970545,8.4605721
98,Realschule am Rennbuckel,PLZ: 76185<br>Ort: Karlsruhe<br>Straße: Bonner Str. 22<br>Teilort: <br>Beschreibung: fischertechnik-AG,Bonner Str. 22,76185,Karlsruhe,fischertechnik-AG,real,,,49.0248733,8.3613744
99,Realschule Neureut,PLZ: 76149 <br>Ort: Karlsruhe<br>Straße: Unterfeldstr. 6<br>Teilort: <br>Beschreibung: fischertechnik-AG,Unterfeldstr. 6,76149 ,Karlsruhe,fischertechnik-AG,real,,,49.04514525,8.378219359001722
100,Realschule Rüppurr,PLZ: 76199 <br>Ort: Karlsruhe<br>Straße: Rosenweg 1<br>Teilort: <br>Beschreibung: fischertechnik-AG,Rosenweg 1,76199 ,Karlsruhe,fischertechnik-AG,real,,,48.97591975,8.415477817529585
101,Realschule Wolfach,PLZ: 77709<br>Ort: Wolfach<br>Straße: Herlinsbachweg 4<br>Teilort: <br>Beschreibung: fischertechnik-AG,Herlinsbachweg 4,77709,Wolfach,fischertechnik-AG,real,,,48.2991967,8.2197314
102,Sophie-Scholl-Realschule,PLZ: 76189<br>Ort: Karlsruhe<br>Straße: Joachim-Kurzaj-Weg 4<br>Teilort: <br>Beschreibung: fischertechnik-AG,Joachim-Kurzaj-Weg 4,76189,Karlsruhe,fischertechnik-AG,real,,,48.991696000000005,8.36122625639948
103,Theodor-Heuss-Schule,PLZ: 76532<br>Ort: Baden-Baden<br>Straße: Rheinstraße 42<br>Teilort: <br>Beschreibung: fischertechnik-AG,Rheinstraße 42,76532,Baden-Baden,fischertechnik-AG,real,,,48.7816281,8.2094995
104,Thomas Morus Realschule,PLZ: 76684<br>Ort: Östringen<br>Straße: Mozartstraße 1d<br>Teilort: <br>Beschreibung: fischertechnik-AG,Mozartstraße 1d,76684,Östringen,fischertechnik-AG,real,,,49.2166979,8.7075723
105,Werner-von-Siemens-Schule,PLZ: 76187<br>Ort: Karlsruhe<br>Straße: Kurt-Schumacher-Straße 1<br>Teilort: <br>Beschreibung: fischertechnik-AG,Kurt-Schumacher-Straße 1,76187,Karlsruhe,fischertechnik-AG,real,,,49.03144615,8.371683438750942
